,OBJECT_NAME,OBJECT_ID,EPOCH,MEAN_MOTION,ECCENTRICITY,INCLINATION,RA_OF_ASC_NODE,ARG_OF_PERICENTER,MEAN_ANOMALY,NORAD_CAT_ID,REV_AT_EPOCH,BSTAR,MEAN_MOTION_DOT,MEAN_MOTION_DDOT,SEMIMAJOR_AXIS,PERIOD,APOAPSIS,PERIAPSIS,OBJECT_TYPE,RCS_SIZE,COUNTRY_CODE,LAUNCH_DATE,SITE
11282,STARLINK-1509,2020-038AN,2021-10-31T20:55:22.295712,15.06400759,0.0002048,53.0543,153.5994,78.7094,281.4125,45766,7684,6.1419e-05,6.33e-06,0.0,6925.346,95.592,548.63,545.793,0,2,US,2020.0,AFETR
11283,STARLINK-1511,2020-038AP,2021-10-31T23:55:50.229696,15.06404701,0.0001671,53.0555,153.0289,80.7703,279.3475,45767,7779,0.0001541,2.015e-05,0.0,6925.334,95.592,548.356,546.042,0,2,US,2020.0,AFETR
11284,STARLINK-1521,2020-038AQ,2021-10-31T20:18:12.994272,15.06399315,0.0001665,53.0543,153.7135,79.9046,280.2131,45768,7685,3.5989e-05,2.55e-06,0.0,6925.351,95.592,548.369,546.063,0,2,US,2020.0,AFETR
11285,STARLINK-1459,2020-038AR,2021-10-31T22:28:15.608064,15.06394715,0.000203,53.0537,173.3056,71.4638,288.6571,45769,7658,-5.2527e-05,-1.064e-05,0.0,6925.365,95.592,548.636,545.824,0,2,US,2020.0,AFETR
11286,STARLINK-1462,2020-038AS,2021-10-31T19:21:07.819200,15.06398405,0.0001694,53.0545,133.8922,75.9631,284.1547,45770,7711,-2.4922e-05,-6.53e-06,0.0,6925.353,95.592,548.392,546.045,0,2,US,2020.0,AFETR
11287,STARLINK-1463,2020-038AT,2021-10-31T19:11:52.081440,15.06408281,0.0001885,53.0538,133.917,75.983,284.1368,45771,7711,0.00017285,2.294e-05,0.0,6925.323,95.592,548.494,545.883,0,2,US,2020.0,AFETR
11288,STARLINK-1470,2020-038AU,2021-10-31T18:55:57.058176,15.06400457,0.0001715,53.0545,133.972,73.4637,286.654,45772,7712,4.3245e-05,3.63e-06,0.0,6925.347,95.592,548.4,546.024,0,2,US,2020.0,AFETR
11289,STARLINK-1482,2020-038AV,2021-10-31T17:09:48.040704,15.06390315,0.000162,53.0536,134.2913,81.3041,278.8131,45773,7711,9.3048e-05,1.104e-05,0.0,6925.378,95.593,548.365,546.121,0,2,US,2020.0,AFETR
11290,STARLINK-1485,2020-038AW,2021-10-31T19:38:24.432576,15.06409111,0.0002254,53.0522,133.8316,82.5625,277.562,45774,7712,-0.0001126,-1.959e-05,0.0,6925.321,95.592,548.747,545.625,0,2,US,2020.0,AFETR
11291,STARLINK-1488,2020-038AX,2021-10-31T19:43:43.408416,15.06397064,0.0001908,53.0539,133.815,89.0662,271.0545,45775,7713,3.5364e-05,2.45e-06,0.0,6925.358,95.592,548.544,545.901,0,2,US,2020.0,AFETR
11292,STARLINK-1489,2020-038AY,2021-10-31T21:29:52.402560,15.06399903,0.0001694,53.0517,133.4872,79.8698,280.2482,45776,7714,7.4816e-05,8.33e-06,0.0,6925.349,95.592,548.387,546.041,0,2,US,2020.0,AFETR
11293,STARLINK-1490,2020-038AZ,2021-10-31T19:49:01.159104,15.06398362,0.0001709,53.0541,133.8023,81.5712,278.5471,45777,7713,0.00012091,1.52e-05,0.0,6925.354,95.592,548.402,546.035,0,2,US,2020.0,AFETR
11294,STARLINK-1491,2020-038BA,2021-11-01T00:09:06.589728,15.06394663,0.0001417,53.0533,132.9914,90.9341,269.1811,45778,7826,-1.6901e-05,-5.33e-06,0.0,6925.365,95.592,548.211,546.249,0,2,US,2020.0,AFETR
11295,STARLINK-1492,2020-038BB,2021-10-31T19:17:11.117760,15.06396758,0.0001621,53.054,133.908,87.3991,272.7183,45779,7711,2.4669e-05,8.6e-07,0.0,6925.358,95.592,548.346,546.101,0,2,US,2020.0,AFETR
11296,STARLINK-1496,2020-038BC,2021-10-31T19:33:06.121152,15.06399586,0.0001677,53.054,133.8554,82.8481,277.2698,45780,7711,-9.68e-06,-4.26e-06,0.0,6925.35,95.592,548.376,546.053,0,2,US,2020.0,AFETR
11297,STARLINK-1497,2020-038BD,2021-11-01T00:56:52.655712,15.0640302,0.0001804,53.0535,132.8465,87.3672,272.7524,45781,7808,0.0001379,1.773e-05,0.0,6925.339,95.592,548.454,545.955,0,2,US,2020.0,AFETR
11298,STARLINK-1498,2020-038BE,2021-10-31T19:59:37.898592,15.06409846,0.0001637,53.0541,133.7667,83.1744,276.9431,45782,7713,0.00017349,2.304e-05,0.0,6925.318,95.592,548.317,546.05,0,2,US,2020.0,AFETR
11299,STARLINK-1505,2020-038BF,2021-10-31T15:18:20.155392,15.06396308,0.0001734,53.0527,134.6311,88.169,271.9497,45783,7710,3.44e-06,-2.3e-06,0.0,6925.36,95.592,548.426,546.024,0,2,US,2020.0,AFETR
11300,STARLINK-1510,2020-038BG,2021-11-01T00:14:25.207008,15.06408049,0.0001752,53.0533,132.9772,83.9164,276.2024,45784,7807,0.00023975,3.292e-05,0.0,6925.324,95.592,548.402,545.976,0,2,US,2020.0,AFETR
11301,STARLINK-1512,2020-038BH,2021-10-31T19:01:15.772224,15.06395541,0.0001774,53.0527,133.9509,81.3131,278.8059,45785,7712,-1.02e-06,-2.97e-06,0.0,6925.362,95.592,548.456,545.999,0,2,US,2020.0,AFETR
11302,STARLINK-1513,2020-038BJ,2021-11-01T01:02:11.218560,15.06398362,0.0001596,53.0525,132.8205,82.6643,277.4527,45786,7808,-8.55e-07,-2.94e-06,0.0,6925.354,95.592,548.324,546.113,0,2,US,2020.0,AFETR
11303,STARLINK-1517,2020-038BK,2021-10-31T20:26:10.713696,15.06399007,0.0001627,53.0538,133.6821,84.4029,275.7146,45787,7713,9.39e-06,-1.42e-06,0.0,6925.352,95.592,548.343,546.09,0,2,US,2020.0,AFETR
11304,SKYSAT C14,2020-038BL,2021-10-31T20:54:59.156064,15.58421503,0.0003511,52.9997,0.1202,47.2206,312.91,45788,7899,0.00027165,0.00020614,0.0,6770.362,92.401,394.604,389.85,0,1,US,2020.0,AFETR
11305,SKYSAT C16,2020-038BM,2021-10-31T21:22:43.126752,15.58551718,0.000432,53.0006,359.5519,59.1844,300.9591,45789,7899,0.00030034,0.00022968,0.0,6769.985,92.393,394.774,388.925,0,1,US,2020.0,AFETR
11306,SKYSAT C15,2020-038BN,2021-10-31T15:45:10.643616,15.58479968,0.0006692,52.9991,0.8766,35.9424,324.2035,45790,7895,0.00028686,0.00021861,0.0,6770.193,92.398,396.588,387.527,0,1,US,2020.0,AFETR
11307,GAOFEN 9 03,2020-039A,2021-11-01T04:23:53.231136,15.23530362,0.0009907,97.3723,62.3581,329.0647,148.6687,45794,7641,0.00010885,2.532e-05,0.0,6873.339,94.517,502.013,488.395,0,2,PRC,2020.0,JSC
11308,ZHEDA PIXING 3A,2020-039B,2021-11-01T02:00:07.566624,15.2513776,0.0012191,97.3732,62.8235,305.8471,227.6675,45795,7642,0.00012302,3.015e-05,0.0,6868.509,94.418,498.747,482.0,0,0,PRC,2020.0,JSC
11309,HEAD-5,2020-039C,2021-11-01T05:12:18.006912,15.26041049,0.0012642,97.3714,63.3044,310.8197,133.0483,45796,7647,0.00019343,4.917e-05,0.0,6865.798,94.362,496.343,478.983,0,1,PRC,2020.0,JSC
11310,CZ-2D DEB,2020-039D,2021-11-01T03:02:19.295808,15.26042413,0.0010518,97.2548,55.1596,110.6612,249.6124,45797,7641,0.00034908,8.933e-05,0.0,6865.794,94.362,494.88,480.438,2,0,PRC,2020.0,JSC
11311,REDEYE 2 (MERLOT),1998-067RM,2021-10-31T12:38:15.913248,15.55737198,0.0001654,51.6427,17.0184,51.1799,308.934,45800,7785,0.00032368,0.00022305,0.0,6778.148,92.561,401.134,398.891,0,1,US,1998.0,TTMTR
11312,CZ-2D DEB,2020-039E,2021-10-31T13:45:22.044384,15.21235603,0.0019914,97.4987,66.8711,198.5531,161.5083,45801,7604,0.00033271,7.398e-05,0.0,6880.249,94.66,515.816,488.413,2,0,PRC,2020.0,JSC
11313,CZ-2D DEB,2020-039F,2021-10-31T16:18:30.111552,15.39917379,0.0039366,97.4958,78.8025,319.9993,39.8424,45802,7685,0.00042664,0.00017371,0.0,6824.49,93.512,473.221,419.49,2,0,PRC,2020.0,JSC
11314,CZ-2D DEB,2020-039G,2021-11-01T01:56:39.375456,15.39767039,0.0036218,97.2355,62.0951,310.2255,49.6069,45803,7690,0.00043144,0.00017411,0.0,6824.935,93.521,471.518,422.081,2,0,PRC,2020.0,JSC
11315,CZ-2D DEB,2020-034C,2021-10-31T08:00:16.000128,15.19096794,0.0028524,97.238,70.6807,140.3152,220.0178,45804,7522,0.00047733,0.00010063,0.0,6886.706,94.793,528.215,488.927,2,0,PRC,2020.0,JSC
11316,CZ-2D DEB,2020-034D,2021-10-31T17:49:55.544736,15.38697029,0.0039371,97.47,100.4033,254.4703,105.2194,45805,7612,0.00065897,0.00025843,0.0,6828.098,93.586,476.846,423.08,2,0,PRC,2020.0,JSC
11317,CZ-2D DEB,2020-034E,2021-10-31T15:58:59.624832,15.39165836,0.0036549,97.2197,82.8369,248.0121,111.724,45806,7612,0.00067495,0.00026791,0.0,6826.712,93.557,473.528,423.626,2,0,PRC,2020.0,JSC
11318,BEIDOU 3 G3,2020-040A,2021-10-31T22:19:39.705024,1.00270173,0.0010488,1.9718,299.2839,339.3851,207.263,45807,514,0.0,-3.5e-06,0.0,42165.184,1436.12,35831.272,35742.826,0,2,PRC,2020.0,XSC
11319,CZ-3B R/B,2020-040B,2021-10-31T21:44:41.973504,2.53088023,0.7114645,28.2267,90.937,150.7705,281.963,45808,1225,0.0023087,0.00051195,9.66e-08,22745.079,568.972,32549.26,184.628,1,2,PRC,2020.0,XSC
11320,REDEYE 3 (CABERNET),1998-067RN,2021-10-31T21:52:22.901952,15.55781005,0.0001949,51.6427,15.089,45.8233,314.2919,45809,7689,0.00034338,0.00023736,0.0,6778.02,92.558,401.206,398.564,0,1,US,1998.0,TTMTR
11321,FREGAT DEB,2011-037AV,2021-10-30T14:17:09.616416,11.88757133,0.1367157,51.2502,51.9045,41.4505,328.2299,45811,6075,0.029248,0.00034667,0.0,8109.73,121.135,2840.323,622.868,2,0,CIS,2011.0,TTMTR
11322,FREGAT DEB,2011-037AW,2021-11-01T03:09:57.065472,11.09193875,0.1072604,51.5918,254.145,254.5381,93.4619,45812,5709,-0.42786,-0.00039052,0.0,8493.047,129.824,3025.88,1203.944,2,0,CIS,2011.0,TTMTR
11323,FREGAT DEB,2011-037AX,2021-10-31T20:59:02.702976,11.37964695,0.1501856,51.6128,167.8375,293.7822,51.2769,45813,5850,-0.016798,-0.00010355,0.0,8349.286,126.542,3225.093,717.208,2,0,CIS,2011.0,TTMTR
11324,FREGAT DEB,2011-037AY,2021-10-06T16:13:47.075520,11.22425963,0.1449719,51.2331,262.7869,248.5409,95.498,45814,5512,-0.0091586,-3.258e-05,0.0,8426.167,128.294,3269.589,826.474,2,0,CIS,2011.0,TTMTR
11325,FREGAT DEB,2011-037AZ,2021-10-29T01:43:24.974112,11.23424249,0.1694524,51.4579,192.9654,276.3998,64.7412,45815,5765,-0.0020367,-2.224e-05,0.0,8421.174,128.18,3470.027,616.051,2,0,CIS,2011.0,TTMTR
11326,FREGAT DEB,2011-037BA,2021-10-31T23:00:46.927872,11.21251979,0.1905591,51.4908,174.0093,292.9825,48.1508,45816,5781,0.0013756,5.177e-05,0.0,8432.047,128.428,3660.715,447.109,2,0,CIS,2011.0,TTMTR
11327,FREGAT DEB,2011-037BC,2021-11-01T03:37:24.319488,12.57221843,0.1424065,51.6092,20.4125,43.5673,326.9203,45818,6098,0.0097733,0.0021025,0.0,7812.57,114.538,2546.995,321.874,2,0,CIS,2011.0,TTMTR
11328,FREGAT DEB,2011-037BE,2021-10-29T00:07:29.885664,11.35411351,0.1685087,51.5601,164.1963,293.3388,49.9205,45820,5828,-0.00025978,-4.48e-06,0.0,8361.798,126.826,3392.699,574.628,2,0,CIS,2011.0,TTMTR
11329,FREGAT DEB,2011-037BG,2021-10-31T20:08:08.709216,11.43726838,0.1691182,51.5103,135.6314,319.5333,29.0967,45822,5895,0.0034398,6.521e-05,0.0,8321.219,125.904,3350.354,535.815,2,1,CIS,2011.0,TTMTR
